NORAD_CAT_ID,OBJECT_NAME,OBJECT_TYPE,EPOCH,MEAN_MOTION,ECCENTRICITY,INCLINATION,RA_OF_ASC_NODE,ARG_OF_PERICENTER,MEAN_ANOMALY,BSTAR,MEAN_MOTION_DOT,MEAN_MOTION_DDOT,TLE_LINE0,TLE_LINE1,TLE_LINE2,SEMIMAJOR_AXIS,PERIOD,APOGEE,PERIGEE,DECAYED
56777.0,STARLINK-5582,PAYLOAD,2023-10-17 23:53:07,14.9930841,0.0003294,70.0014,27.5755,270.6918,89.3864,-4.6935e-06,-1.51e-06,0.0,0 STARLINK-5582,1 56777U 23078L   23290.99523039 -.00000151  00000-0 -46935-5 0  9999,2 56777  70.0014  27.5755 0003294 270.6918  89.3864 14.99308410 22065,6947.169,96.044,571.322,566.745,0.0
56777.0,STARLINK-5582,PAYLOAD,2023-10-18 11:05:38,14.99298057,0.000307,70.0008,26.3974,270.0136,90.0672,9.4089e-06,2.1e-07,0.0,0 STARLINK-5582,1 56777U 23078L   23291.46225531  .00000021  00000-0  94089-5 0  9995,2 56777  70.0008  26.3974 0003070 270.0136  90.0672 14.99298057 22135,6947.201,96.045,571.199,566.933,0.0
56777.0,STARLINK-5582,PAYLOAD,2023-10-18 15:53:51,14.99300756,0.0002758,70.0015,25.8915,267.2227,92.8617,2.1751e-06,-6.7e-07,0.0,0 STARLINK-5582,1 56777U 23078L   23291.66240494 -.00000067  00000-0  21751-5 0  9999,2 56777  70.0015  25.8915 0002758 267.2227  92.8617 14.99300756 21906,6947.193,96.045,570.974,567.141,0.0
56777.0,STARLINK-5582,PAYLOAD,2023-10-18 23:54:13,14.99307088,0.0002963,70.001,25.0488,280.2791,79.8034,-3.605e-05,-5.35e-06,0.0,0 STARLINK-5582,1 56777U 23078L   23291.99598523 -.00000535  00000-0 -36050-4 0  9992,2 56777  70.0010  25.0488 0002963 280.2791  79.8034 14.99307088 22215,6947.173,96.044,571.096,566.98,0.0
56777.0,STARLINK-5582,PAYLOAD,2023-10-19 11:06:43,14.99306194,0.0002848,70.0008,23.8687,265.6033,94.4801,6.3848e-05,6.88e-06,0.0,0 STARLINK-5582,1 56777U 23078L   23292.46299843  .00000688  00000-0  63848-4 0  9990,2 56777  70.0008  23.8687 0002848 265.6033  94.4801 14.99306194 22028,6947.176,96.044,571.019,567.062,0.0
56777.0,STARLINK-5582,PAYLOAD,2023-10-19 23:55:17,14.99310009,0.0003387,70.0007,22.5215,270.5243,89.5529,1.1719e-05,5e-07,0.0,0 STARLINK-5582,1 56777U 23078L   23292.99672872  .00000050  00000-0  11719-4 0  9998,2 56777  70.0007  22.5215 0003387 270.5243  89.5529 14.99310009 22366,6947.164,96.044,571.382,566.676,0.0
56777.0,STARLINK-5582,PAYLOAD,2023-10-20 11:07:49,14.9928897,0.0002996,70.0005,21.3414,264.9421,95.1396,-7.852e-05,-1.054e-05,0.0,0 STARLINK-5582,1 56777U 23078L   23293.46376348 -.00001054  00000-0 -78520-4 0  9990,2 56777  70.0005  21.3414 0002996 264.9421  95.1396 14.99288970 22436,6947.229,96.046,571.175,567.013,0.0
56777.0,STARLINK-5582,PAYLOAD,2023-10-21 11:08:53,14.99300656,0.000228,70.0035,18.8167,252.5979,107.4931,-0.00019028,-2.421e-05,0.0,0 STARLINK-5582,1 56777U 23078L   23294.46451189 -.00002421  00000-0 -19028-3 0  9994,2 56777  70.0035  18.8167 0002280 252.5979 107.4931 14.99300656 22586,6947.193,96.045,570.642,567.474,0.0
56777.0,STARLINK-5582,PAYLOAD,2023-10-21 12:44:53,14.99358807,0.0002359,70.0032,18.6473,247.9015,112.1894,0.00056066,6.783e-05,0.0,0 STARLINK-5582,1 56777U 23078L   23294.53117370  .00006783  00000-0  56066-3 0  9999,2 56777  70.0032  18.6473 0002359 247.9015 112.1894 14.99358807 22332,6947.013,96.041,570.517,567.239,0.0
56777.0,STARLINK-5582,PAYLOAD,2023-10-21 15:57:05,14.9931874,0.0002746,70.0006,18.3084,257.472,102.6133,-0.00016902,-2.162e-05,0.0,0 STARLINK-5582,1 56777U 23078L   23294.66464862 -.00002162  00000-0 -16902-3 0  9998,2 56777  70.0006  18.3084 0002746 257.4720 102.6133 14.99318740 22610,6947.137,96.044,570.91,567.094,0.0
56777.0,STARLINK-5582,PAYLOAD,2023-10-22 09:33:54,14.99291217,0.0002925,70.0004,16.455,257.46,102.6233,7.6208e-05,8.39e-06,0.0,0 STARLINK-5582,1 56777U 23078L   23295.39854526  .00000839  00000-0  76208-4 0  9992,2 56777  70.0004  16.4550 0002925 257.4600 102.6233 14.99291217 22723,6947.222,96.045,571.119,567.055,0.0
56777.0,STARLINK-5582,PAYLOAD,2023-10-22 14:22:07,14.99290261,0.0002787,70.0006,15.9503,256.3403,103.7446,5.8115e-05,6.17e-06,0.0,0 STARLINK-5582,1 56777U 23078L   23295.59869817  .00000617  00000-0  58115-4 0  9994,2 56777  70.0006  15.9503 0002787 256.3403 103.7446 14.99290261 22492,6947.225,96.045,571.026,567.154,0.0
56777.0,STARLINK-5582,PAYLOAD,2023-10-23 11:11:03,14.99299268,0.0002981,70.0005,13.7602,261.8882,98.1939,-1.4944e-05,-2.77e-06,0.0,0 STARLINK-5582,1 56777U 23078L   23296.46601461 -.00000277  00000-0 -14944-4 0  9996,2 56777  70.0005  13.7602 0002981 261.8882  98.1939 14.99299268 22888,6947.197,96.045,571.133,566.991,0.0
56777.0,STARLINK-5582,PAYLOAD,2023-10-24 11:12:08,14.99300243,0.0002797,70.0009,11.2337,261.0395,99.0448,9.4552e-05,1.063e-05,0.0,0 STARLINK-5582,1 56777U 23078L   23297.46676409  .00001063  00000-0  94552-4 0  9996,2 56777  70.0009  11.2337 0002797 261.0395  99.0448 14.99300243 23035,6947.194,96.045,571.002,567.116,0.0
56777.0,STARLINK-5582,PAYLOAD,2023-10-25 14:25:26,14.99247236,0.0002893,70.001,8.3694,275.9364,84.1466,-0.00051534,-6.385e-05,0.0,0 STARLINK-5582,1 56777U 23078L   23298.60099568 -.00006385  00000-0 -51534-3 0  9994,2 56777  70.0010   8.3694 0002893 275.9364  84.1466 14.99247236 23203,6947.358,96.048,571.233,567.213,0.0
56777.0,STARLINK-5582,PAYLOAD,2023-10-25 22:25:43,14.99302599,0.0002477,70.002,7.527,271.9037,88.1839,-4.7557e-06,-1.52e-06,0.0,0 STARLINK-5582,1 56777U 23078L   23298.93453464 -.00000152  00000-0 -47557-5 0  9997,2 56777  70.0020   7.5270 0002477 271.9037  88.1839 14.99302599 22993,6947.187,96.045,570.773,567.331,0.0
56777.0,STARLINK-5582,PAYLOAD,2023-10-26 03:13:57,14.9929331,0.0003041,70.0002,7.0221,268.9889,91.0922,-3.4193e-05,-5.12e-06,0.0,0 STARLINK-5582,1 56777U 23078L   23299.13468962 -.00000512  00000-0 -34193-4 0  9990,2 56777  70.0002   7.0221 0003041 268.9889  91.0922 14.99293310 23282,6947.216,96.045,571.193,566.968,0.0
56777.0,STARLINK-5582,PAYLOAD,2023-10-26 11:14:18,14.99299459,0.0002945,70.0004,6.1797,264.4106,95.6717,6.6583e-06,-1.2e-07,0.0,0 STARLINK-5582,1 56777U 23078L   23299.46826935 -.00000012  00000-0  66583-5 0  9997,2 56777  70.0004   6.1797 0002945 264.4106  95.6717 14.99299459 23335,6947.197,96.045,571.107,567.016,0.0
56777.0,STARLINK-5582,PAYLOAD,2023-10-26 12:50:22,14.99300119,0.0002899,70.0004,6.0113,259.7536,100.3296,2.8634e-05,2.57e-06,0.0,0 STARLINK-5582,1 56777U 23078L   23299.53498483  .00000257  00000-0  28634-4 0  9992,2 56777  70.0004   6.0113 0002899 259.7536 100.3296 14.99300119 23082,6947.194,96.045,571.073,567.046,0.0
56777.0,STARLINK-5582,PAYLOAD,2023-10-26 14:26:26,14.99302014,0.0002995,70.0002,5.8426,262.509,97.5729,2.7673e-05,2.45e-06,0.0,0 STARLINK-5582,1 56777U 23078L   23299.60170058  .00000245  00000-0  27673-4 0  9994,2 56777  70.0002   5.8426 0002995 262.5090  97.5729 14.99302014 23093,6947.189,96.045,571.134,566.973,0.0
56777.0,STARLINK-5582,PAYLOAD,2023-10-27 04:51:05,14.99306655,0.000311,70.0,4.326,270.0483,90.032,4.0783e-05,4.05e-06,0.0,0 STARLINK-5582,1 56777U 23078L   23300.20214702  .00000405  00000-0  40783-4 0  9993,2 56777  70.0000   4.3260 0003110 270.0483  90.0320 14.99306655 23440,6947.174,96.044,571.2,566.879,0.0
56777.0,STARLINK-5582,PAYLOAD,2023-10-27 11:15:22,14.993165,0.0002818,70.0002,3.6528,267.6249,92.4588,0.00012243,1.405e-05,0.0,0 STARLINK-5582,1 56777U 23078L   23300.46900497  .00001405  00000-0  12243-3 0  9994,2 56777  70.0002   3.6528 0002818 267.6249  92.4588 14.99316500 23483,6947.144,96.044,570.967,567.051,0.0
56777.0,STARLINK-5582,PAYLOAD,2023-10-28 11:16:28,14.99293421,0.0002916,70.0001,1.1255,269.7219,90.3606,-5.1461e-05,-7.23e-06,0.0,0 STARLINK-5582,1 56777U 23078L   23301.46977439 -.00000723  00000-0 -51461-4 0  9995,2 56777  70.0001   1.1255 0002916 269.7219  90.3606 14.99293421 23632,6947.215,96.045,571.106,567.054,0.0
56777.0,STARLINK-5582,PAYLOAD,2023-10-28 12:52:32,14.99292894,0.0002879,70.0002,0.9572,268.0297,92.0533,-4.9638e-05,-7.01e-06,0.0,0 STARLINK-5582,1 56777U 23078L   23301.53649172 -.00000701  00000-0 -49638-4 0  9992,2 56777  70.0002   0.9572 0002879 268.0297  92.0533 14.99292894 23381,6947.217,96.045,571.082,567.082,0.0
56777.0,STARLINK-5582,PAYLOAD,2023-10-28 14:28:37,14.99294142,0.0002879,70.0002,0.7886,267.4698,92.6132,-3.2547e-05,-4.92e-06,0.0,0 STARLINK-5582,1 56777U 23078L   23301.60320747 -.00000492  00000-0 -32547-4 0  9992,2 56777  70.0002   0.7886 0002879 267.4698  92.6132 14.99294142 23395,6947.213,96.045,571.078,567.078,0.0
56777.0,STARLINK-5582,PAYLOAD,2023-10-29 03:17:11,14.99313428,0.0002599,69.9998,359.4398,273.2639,86.8223,-0.00019323,-2.458e-05,0.0,0 STARLINK-5582,1 56777U 23078L   23302.13693470 -.00002458  00000-0 -19323-3 0  9997,2 56777  69.9998 359.4398 0002599 273.2639  86.8223 14.99313428 23730,6947.153,96.044,570.824,567.213,0.0
56777.0,STARLINK-5582,PAYLOAD,2023-10-29 12:53:36,14.9930995,0.0002499,70.0015,358.4301,268.2896,91.7977,3.9053e-05,3.84e-06,0.0,0 STARLINK-5582,1 56777U 23078L   23302.53722645  .00000384  00000-0  39053-4 0  9995,2 56777  70.0015 358.4301 0002499 268.2896  91.7977 14.99309950 23538,6947.164,96.044,570.765,567.293,0.0
56777.0,STARLINK-5582,PAYLOAD,2023-10-29 20:53:56,14.99366426,0.0002706,70.0018,357.5872,279.9927,80.0927,-0.00097694,-0.00012047,0.0,0 STARLINK-5582,1 56777U 23078L   23302.87079562 -.00012047  00000-0 -97694-3 0  9990,2 56777  70.0018 357.5872 0002706 279.9927  80.0927 14.99366426 23581,6946.99,96.041,570.735,566.975,0.0
56777.0,STARLINK-5582,PAYLOAD,2023-10-30 04:54:41,14.99033992,0.0002868,70.0013,356.7454,282.2573,77.8265,-0.0026208,-0.00031796,0.0,0 STARLINK-5582,1 56777U 23078L   23303.20465059 -.00031796  00000-0 -26208-2 0  9992,2 56777  70.0013 356.7454 0002868 282.2573  77.8265 14.99033992 23898,6948.017,96.062,571.874,567.889,0.0
56777.0,STARLINK-5582,PAYLOAD,2023-10-30 11:19:23,14.98771983,0.0002117,70.0008,356.0714,265.0496,95.0421,-0.0052859,-0.00063314,0.0,0 STARLINK-5582,1 56777U 23078L   23303.47180211 -.00063314  00000-0 -52859-2 0  9997,2 56777  70.0008 356.0714 0002117 265.0496  95.0421 14.98771983 23933,6948.826,96.079,572.162,569.22,0.0
